CCSDS_OMM_VERS = 2.0
CREATION_DATE  = 
ORIGINATOR     = 

OBJECT_NAME    = ALOS-2
OBJECT_ID      = 2014-029A
CENTER_NAME    = EARTH
REF_FRAME      = TEME
TIME_SYSTEM    = UTC
MEAN_ELEMENT_THEORY = SGP/SGP4

EPOCH          = 2026-03-09T12:22:55.998624
MEAN_MOTION    = 14.79505513
ECCENTRICITY   = .0001503
INCLINATION    = 97.9193
RA_OF_ASC_NODE = 167.1157
ARG_OF_PERICENTER = 96.9540
MEAN_ANOMALY   = 263.1842

EPHEMERIS_TYPE = 0
CLASSIFICATION_TYPE = U
NORAD_CAT_ID   = 39766
ELEMENT_SET_NO = 999
REV_AT_EPOCH   = 63684
BSTAR          = .38928E-3
MEAN_MOTION_DOT = .2859E-4
MEAN_MOTION_DDOT = 0

CCSDS_OMM_VERS = 2.0
CREATION_DATE  = 
ORIGINATOR     = 

OBJECT_NAME    = YAOGAN-29
OBJECT_ID      = 2015-069A
CENTER_NAME    = EARTH
REF_FRAME      = TEME
TIME_SYSTEM    = UTC
MEAN_ELEMENT_THEORY = SGP/SGP4

EPOCH          = 2026-03-09T12:35:24.524160
MEAN_MOTION    = 14.82997274
ECCENTRICITY   = .0001968
INCLINATION    = 98.0143
RA_OF_ASC_NODE = 96.9538
ARG_OF_PERICENTER = 37.3758
MEAN_ANOMALY   = 322.7592

EPHEMERIS_TYPE = 0
CLASSIFICATION_TYPE = U
NORAD_CAT_ID   = 41038
ELEMENT_SET_NO = 999
REV_AT_EPOCH   = 55585
BSTAR          = .11483E-3
MEAN_MOTION_DOT = .879E-5
MEAN_MOTION_DDOT = 0

CCSDS_OMM_VERS = 2.0
CREATION_DATE  = 
ORIGINATOR     = 

OBJECT_NAME    = ASTRO-H (HITOMI)
OBJECT_ID      = 2016-012A
CENTER_NAME    = EARTH
REF_FRAME      = TEME
TIME_SYSTEM    = UTC
MEAN_ELEMENT_THEORY = SGP/SGP4

EPOCH          = 2026-03-08T21:46:02.133696
MEAN_MOTION    = 15.09999868
ECCENTRICITY   = .00098865
INCLINATION    = 31.0008
RA_OF_ASC_NODE = 1.5984
ARG_OF_PERICENTER = 323.2625
MEAN_ANOMALY   = 36.7335

EPHEMERIS_TYPE = 0
CLASSIFICATION_TYPE = U
NORAD_CAT_ID   = 41337
ELEMENT_SET_NO = 999
REV_AT_EPOCH   = 55211
BSTAR          = .27389861E-3
MEAN_MOTION_DOT = .466E-4
MEAN_MOTION_DDOT = 0

CCSDS_OMM_VERS = 2.0
CREATION_DATE  = 
ORIGINATOR     = 

OBJECT_NAME    = HXMT (HUIYAN)
OBJECT_ID      = 2017-034A
CENTER_NAME    = EARTH
REF_FRAME      = TEME
TIME_SYSTEM    = UTC
MEAN_ELEMENT_THEORY = SGP/SGP4

EPOCH          = 2026-03-09T07:36:18.464832
MEAN_MOTION    = 15.17457910
ECCENTRICITY   = .0032871
INCLINATION    = 43.0156
RA_OF_ASC_NODE = 18.7458
ARG_OF_PERICENTER = 233.7115
MEAN_ANOMALY   = 126.0695

EPHEMERIS_TYPE = 0
CLASSIFICATION_TYPE = U
NORAD_CAT_ID   = 42758
ELEMENT_SET_NO = 999
REV_AT_EPOCH   = 48248
BSTAR          = .4001E-3
MEAN_MOTION_DOT = .8037E-4
MEAN_MOTION_DDOT = 0

CCSDS_OMM_VERS = 2.0
CREATION_DATE  = 
ORIGINATOR     = 

OBJECT_NAME    = SAOCOM 1A
OBJECT_ID      = 2018-076A
CENTER_NAME    = EARTH
REF_FRAME      = TEME
TIME_SYSTEM    = UTC
MEAN_ELEMENT_THEORY = SGP/SGP4

EPOCH          = 2026-03-09T11:46:12.800352
MEAN_MOTION    = 14.82171930
ECCENTRICITY   = .0001314
INCLINATION    = 97.8893
RA_OF_ASC_NODE = 256.6654
ARG_OF_PERICENTER = 85.5852
MEAN_ANOMALY   = 274.5511

EPHEMERIS_TYPE = 0
CLASSIFICATION_TYPE = U
NORAD_CAT_ID   = 43641
ELEMENT_SET_NO = 999
REV_AT_EPOCH   = 40133
BSTAR          = .14575E-3
MEAN_MOTION_DOT = .1109E-4
MEAN_MOTION_DDOT = 0

CCSDS_OMM_VERS = 2.0
CREATION_DATE  = 
ORIGINATOR     = 

OBJECT_NAME    = H-2A R/B
OBJECT_ID      = 2018-084L
CENTER_NAME    = EARTH
REF_FRAME      = TEME
TIME_SYSTEM    = UTC
MEAN_ELEMENT_THEORY = SGP/SGP4

EPOCH          = 2026-03-09T12:54:51.135840
MEAN_MOTION    = 15.41341569
ECCENTRICITY   = .002547
INCLINATION    = 98.8730
RA_OF_ASC_NODE = 285.8934
ARG_OF_PERICENTER = 25.8325
MEAN_ANOMALY   = 334.4183

EPHEMERIS_TYPE = 0
CLASSIFICATION_TYPE = U
NORAD_CAT_ID   = 43682
ELEMENT_SET_NO = 999
REV_AT_EPOCH   = 40575
BSTAR          = .50909E-3
MEAN_MOTION_DOT = .21398E-3
MEAN_MOTION_DDOT = 0

CCSDS_OMM_VERS = 2.0
CREATION_DATE  = 
ORIGINATOR     = 

OBJECT_NAME    = SAOCOM 1B
OBJECT_ID      = 2020-059A
CENTER_NAME    = EARTH
REF_FRAME      = TEME
TIME_SYSTEM    = UTC
MEAN_ELEMENT_THEORY = SGP/SGP4

EPOCH          = 2026-03-06T22:57:01.124064
MEAN_MOTION    = 14.82173062
ECCENTRICITY   = .00015046
INCLINATION    = 97.8885
RA_OF_ASC_NODE = 253.2654
ARG_OF_PERICENTER = 81.2285
MEAN_ANOMALY   = 278.9098

EPHEMERIS_TYPE = 0
CLASSIFICATION_TYPE = U
NORAD_CAT_ID   = 46265
ELEMENT_SET_NO = 999
REV_AT_EPOCH   = 29834
BSTAR          = .17595012E-3
MEAN_MOTION_DOT = .1349E-4
MEAN_MOTION_DDOT = 0

CCSDS_OMM_VERS = 2.0
CREATION_DATE  = 
ORIGINATOR     = 

OBJECT_NAME    = CSS (TIANHE)
OBJECT_ID      = 2021-035A
CENTER_NAME    = EARTH
REF_FRAME      = TEME
TIME_SYSTEM    = UTC
MEAN_ELEMENT_THEORY = SGP/SGP4

EPOCH          = 2026-03-09T12:33:59.219712
MEAN_MOTION    = 15.60647240
ECCENTRICITY   = .0006983
INCLINATION    = 41.4667
RA_OF_ASC_NODE = 209.1734
ARG_OF_PERICENTER = 272.1717
MEAN_ANOMALY   = 87.8322

EPHEMERIS_TYPE = 0
CLASSIFICATION_TYPE = U
NORAD_CAT_ID   = 48274
ELEMENT_SET_NO = 999
REV_AT_EPOCH   = 27758
BSTAR          = .29658E-3
MEAN_MOTION_DOT = .25054E-3
MEAN_MOTION_DDOT = 0

CCSDS_OMM_VERS = 2.0
CREATION_DATE  = 
ORIGINATOR     = 

OBJECT_NAME    = COSMOS 2550
OBJECT_ID      = 2021-056A
CENTER_NAME    = EARTH
REF_FRAME      = TEME
TIME_SYSTEM    = UTC
MEAN_ELEMENT_THEORY = SGP/SGP4

EPOCH          = 2026-03-08T11:22:34.326624
MEAN_MOTION    = 15.33829151
ECCENTRICITY   = .00083692
INCLINATION    = 67.1451
RA_OF_ASC_NODE = 44.6088
ARG_OF_PERICENTER = 269.6014
MEAN_ANOMALY   = 90.4182

EPHEMERIS_TYPE = 0
CLASSIFICATION_TYPE = U
NORAD_CAT_ID   = 48865
ELEMENT_SET_NO = 999
REV_AT_EPOCH   = 26327
BSTAR          = -.13338E-7
MEAN_MOTION_DOT = -.192E-5
MEAN_MOTION_DDOT = 0

CCSDS_OMM_VERS = 2.0
CREATION_DATE  = 
ORIGINATOR     = 

OBJECT_NAME    = CZ-2C R/B
OBJECT_ID      = 2022-058K
CENTER_NAME    = EARTH
REF_FRAME      = TEME
TIME_SYSTEM    = UTC
MEAN_ELEMENT_THEORY = SGP/SGP4

EPOCH          = 2026-03-08T02:20:56.384448
MEAN_MOTION    = 15.54100851
ECCENTRICITY   = .00421766
INCLINATION    = 50.1897
RA_OF_ASC_NODE = 326.4776
ARG_OF_PERICENTER = 194.0797
MEAN_ANOMALY   = 165.9000

EPHEMERIS_TYPE = 0
CLASSIFICATION_TYPE = U
NORAD_CAT_ID   = 52794
ELEMENT_SET_NO = 999
REV_AT_EPOCH   = 20988
BSTAR          = .68668989E-3
MEAN_MOTION_DOT = .47047E-3
MEAN_MOTION_DDOT = 0

CCSDS_OMM_VERS = 2.0
CREATION_DATE  = 
ORIGINATOR     = 

OBJECT_NAME    = CZ-2C R/B
OBJECT_ID      = 2022-132E
CENTER_NAME    = EARTH
REF_FRAME      = TEME
TIME_SYSTEM    = UTC
MEAN_ELEMENT_THEORY = SGP/SGP4

EPOCH          = 2026-03-09T11:59:42.547200
MEAN_MOTION    = 15.61822408
ECCENTRICITY   = .0020628
INCLINATION    = 97.2972
RA_OF_ASC_NODE = 71.8107
ARG_OF_PERICENTER = 92.0909
MEAN_ANOMALY   = 268.2712

EPHEMERIS_TYPE = 0
CLASSIFICATION_TYPE = U
NORAD_CAT_ID   = 54039
ELEMENT_SET_NO = 999
REV_AT_EPOCH   = 19034
BSTAR          = .46801E-3
MEAN_MOTION_DOT = .40978E-3
MEAN_MOTION_DDOT = 0

CCSDS_OMM_VERS = 2.0
CREATION_DATE  = 
ORIGINATOR     = 

OBJECT_NAME    = GSLV R/B
OBJECT_ID      = 2022-138AN
CENTER_NAME    = EARTH
REF_FRAME      = TEME
TIME_SYSTEM    = UTC
MEAN_ELEMENT_THEORY = SGP/SGP4

EPOCH          = 2026-03-09T07:40:21.226368
MEAN_MOTION    = 14.96770932
ECCENTRICITY   = .0022973
INCLINATION    = 87.3875
RA_OF_ASC_NODE = 166.4861
ARG_OF_PERICENTER = 148.0085
MEAN_ANOMALY   = 212.2547

EPHEMERIS_TYPE = 0
CLASSIFICATION_TYPE = U
NORAD_CAT_ID   = 54149
ELEMENT_SET_NO = 999
REV_AT_EPOCH   = 18387
BSTAR          = .31939E-3
MEAN_MOTION_DOT = .3699E-4
MEAN_MOTION_DDOT = 0

