ALOS-2                  
1 39766U 14029A   26068.51592591  .00002859  00000+0  38928-3 0  9992
2 39766  97.9193 167.1157 0001503  96.9540 263.1842 14.79505513636844
YAOGAN-29               
1 41038U 15069A   26068.52458940  .00000879  00000+0  11483-3 0  9999
2 41038  98.0143  96.9538 0001968  37.3758 322.7592 14.82997274555851
ASTRO-H (HITOMI)        
1 41337U 16012A   26067.90696914  .00004660  00000+0  27390-3 0  9992
2 41337  31.0008   1.5984 0009886 323.2625  36.7335 15.09999868552118
HXMT (HUIYAN)           
1 42758U 17034A   26068.31688038  .00008037  00000+0  40010-3 0  9995
2 42758  43.0156  18.7458 0032871 233.7115 126.0695 15.17457910482488
SAOCOM 1A               
1 43641U 18076A   26068.49042593  .00001109  00000+0  14575-3 0  9993
2 43641  97.8893 256.6654 0001314  85.5852 274.5511 14.82171930401332
H-2A R/B                
1 43682U 18084L   26068.53809185  .00021398  00000+0  50909-3 0  9993
2 43682  98.8730 285.8934 0025470  25.8325 334.4183 15.41341569405758
SAOCOM 1B               
1 46265U 20059A   26065.95626301  .00001349  00000+0  17595-3 0  9996
2 46265  97.8885 253.2654 0001504  81.2285 278.9098 14.82173062298346
CSS (TIANHE)            
1 48274U 21035A   26068.52360208  .00025054  00000+0  29658-3 0  9992
2 48274  41.4667 209.1734 0006983 272.1717  87.8322 15.60647240277588
COSMOS 2550             
1 48865U 21056A   26067.47400841 -.00000192  00000+0 -13338-7 0  9992
2 48865  67.1451  44.6088 0008369 269.6014  90.4182 15.33829151263273
CZ-2C R/B               
1 52794U 22058K   26067.09787482  .00047047  00000+0  68669-3 0  9999
2 52794  50.1897 326.4776 0042176 194.0797 165.9000 15.54100851209889
CZ-2C R/B               
1 54039U 22132E   26068.49979800  .00040978  00000+0  46801-3 0  9998
2 54039  97.2972  71.8107 0020628  92.0909 268.2712 15.61822408190342
GSLV R/B                
1 54149U 22138AN  26068.31969012  .00003699  00000+0  31939-3 0  9996
2 54149  87.3875 166.4861 0022973 148.0085 212.2547 14.96770932183872
